SHIYAN-1 (SY-1)         
1 28220U 04012A   26068.73650539  .00016393  00000+0  54854-3 0  9991
2 28220  97.8764 140.5238 0005873  23.6952 336.4557 15.31043463195862
STARLINK-30169          
1 57499U 23113E   26068.17478772 -.00001723  00000+0 -53049-4 0  9998
2 57499  43.0048   4.7938 0002385 269.5550  90.5028 15.27589512143609
